[{"OBJECT_NAME":"STARLINK-30209","OBJECT_ID":"2023-096T","EPOCH":"2026-03-02T09:12:44.894880","MEAN_MOTION":16.25821908,"ECCENTRICITY":0.00231269,"INCLINATION":42.9575,"RA_OF_ASC_NODE":178.4941,"ARG_OF_PERICENTER":349.9616,"MEAN_ANOMALY":10.0807,"EPHEMERIS_TYPE":0,"CLASSIFICATION_TYPE":"U","NORAD_CAT_ID":57307,"ELEMENT_SET_NO":999,"REV_AT_EPOCH":14659,"BSTAR":0.0021000159,"MEAN_MOTION_DOT":0.07402874,"MEAN_MOTION_DDOT":9.250356e-6},{"OBJECT_NAME":"QIANKUN-1","OBJECT_ID":"2023-103B","EPOCH":"2026-03-02T08:39:35.571168","MEAN_MOTION":16.07672143,"ECCENTRICITY":0.00249924,"INCLINATION":96.1975,"RA_OF_ASC_NODE":113.3483,"ARG_OF_PERICENTER":174.0337,"MEAN_ANOMALY":186.1251,"EPHEMERIS_TYPE":0,"CLASSIFICATION_TYPE":"U","NORAD_CAT_ID":57422,"ELEMENT_SET_NO":999,"REV_AT_EPOCH":15013,"BSTAR":2.276074e-6,"MEAN_MOTION_DOT":1.372e-5,"MEAN_MOTION_DDOT":1.686021e-6},{"OBJECT_NAME":"OBJECT B","OBJECT_ID":"2023-104B","EPOCH":"2026-03-02T21:27:44.497728","MEAN_MOTION":15.92521196,"ECCENTRICITY":0.00018271,"INCLINATION":97.2685,"RA_OF_ASC_NODE":150.1833,"ARG_OF_PERICENTER":317.9791,"MEAN_ANOMALY":42.1343,"EPHEMERIS_TYPE":0,"CLASSIFICATION_TYPE":"U","NORAD_CAT_ID":57425,"ELEMENT_SET_NO":999,"REV_AT_EPOCH":14699,"BSTAR":0.00086565079,"MEAN_MOTION_DOT":0.00292015,"MEAN_MOTION_DDOT":3.4213839e-5},{"OBJECT_NAME":"SATORO-T2","OBJECT_ID":"2024-149K","EPOCH":"2026-03-02T19:47:35.050272","MEAN_MOTION":16.42460453,"ECCENTRICITY":0.00116018,"INCLINATION":97.3532,"RA_OF_ASC_NODE":155.3194,"ARG_OF_PERICENTER":281.1702,"MEAN_ANOMALY":78.8295,"EPHEMERIS_TYPE":0,"CLASSIFICATION_TYPE":"U","NORAD_CAT_ID":60477,"ELEMENT_SET_NO":999,"REV_AT_EPOCH":8663,"BSTAR":0.00050664225,"MEAN_MOTION_DOT":0.11883383,"MEAN_MOTION_DDOT":2.51825e-6},{"OBJECT_NAME":"RUZAEVKA 390 (RS44S)","OBJECT_ID":"2024-199AH","EPOCH":"2026-03-02T15:02:28.957056","MEAN_MOTION":16.0027881,"ECCENTRICITY":0.00017049,"INCLINATION":97.2881,"RA_OF_ASC_NODE":303.4007,"ARG_OF_PERICENTER":153.2138,"MEAN_ANOMALY":206.9229,"EPHEMERIS_TYPE":0,"CLASSIFICATION_TYPE":"U","NORAD_CAT_ID":61766,"ELEMENT_SET_NO":999,"REV_AT_EPOCH":11839,"BSTAR":0.0016494263,"MEAN_MOTION_DOT":0.00844467,"MEAN_MOTION_DDOT":0.00034052246},{"OBJECT_NAME":"SZ-19 DEB","OBJECT_ID":"2024-194E","EPOCH":"2026-03-02T20:24:40.238208","MEAN_MOTION":16.1231319,"ECCENTRICITY":0.001359,"INCLINATION":41.4596,"RA_OF_ASC_NODE":205.6714,"ARG_OF_PERICENTER":359.3521,"MEAN_ANOMALY":0.7317,"EPHEMERIS_TYPE":0,"CLASSIFICATION_TYPE":"U","NORAD_CAT_ID":63801,"ELEMENT_SET_NO":999,"REV_AT_EPOCH":4811,"BSTAR":0.00046353,"MEAN_MOTION_DOT":0.00541315,"MEAN_MOTION_DDOT":0.00016154},{"OBJECT_NAME":"UNICORN-2P","OBJECT_ID":"2025-052BT","EPOCH":"2026-03-02T15:53:23.407872","MEAN_MOTION":16.21197985,"ECCENTRICITY":0.00074413,"INCLINATION":97.3657,"RA_OF_ASC_NODE":322.3273,"ARG_OF_PERICENTER":165.4209,"MEAN_ANOMALY":194.7296,"EPHEMERIS_TYPE":0,"CLASSIFICATION_TYPE":"U","NORAD_CAT_ID":63981,"ELEMENT_SET_NO":999,"REV_AT_EPOCH":5408,"BSTAR":0.0043614637,"MEAN_MOTION_DOT":0.09021256,"MEAN_MOTION_DDOT":2.471348e-6},{"OBJECT_NAME":"COSMOS 2591","OBJECT_ID":"2025-182A","EPOCH":"2026-03-02T08:30:25.386336","MEAN_MOTION":15.96311453,"ECCENTRICITY":0.00083372,"INCLINATION":96.593,"RA_OF_ASC_NODE":354.7408,"ARG_OF_PERICENTER":189.8135,"MEAN_ANOMALY":170.2982,"EPHEMERIS_TYPE":0,"CLASSIFICATION_TYPE":"U","NORAD_CAT_ID":65267,"ELEMENT_SET_NO":999,"REV_AT_EPOCH":3065,"BSTAR":0.00013318831,"MEAN_MOTION_DOT":0.00054645,"MEAN_MOTION_DDOT":2.994628e-6},{"OBJECT_NAME":"COSMOS 2592","OBJECT_ID":"2025-182B","EPOCH":"2026-03-02T23:55:38.125920","MEAN_MOTION":15.96424954,"ECCENTRICITY":0.00060765,"INCLINATION":96.5896,"RA_OF_ASC_NODE":355.326,"ARG_OF_PERICENTER":184.3902,"MEAN_ANOMALY":175.7325,"EPHEMERIS_TYPE":0,"CLASSIFICATION_TYPE":"U","NORAD_CAT_ID":65268,"ELEMENT_SET_NO":999,"REV_AT_EPOCH":3075,"BSTAR":1.3184173e-5,"MEAN_MOTION_DOT":4.906e-5,"MEAN_MOTION_DDOT":1.864134e-6},{"OBJECT_NAME":"COSMOS 2593","OBJECT_ID":"2025-182C","EPOCH":"2026-03-02T22:47:57.363072","MEAN_MOTION":15.96434449,"ECCENTRICITY":0.00069963,"INCLINATION":96.5902,"RA_OF_ASC_NODE":355.2593,"ARG_OF_PERICENTER":176.0277,"MEAN_ANOMALY":184.1059,"EPHEMERIS_TYPE":0,"CLASSIFICATION_TYPE":"U","NORAD_CAT_ID":65269,"ELEMENT_SET_NO":999,"REV_AT_EPOCH":3074,"BSTAR":4.578669e-5,"MEAN_MOTION_DOT":0.00018508,"MEAN_MOTION_DDOT":1.988142e-6},{"OBJECT_NAME":"COSMOS 2594","OBJECT_ID":"2025-182D","EPOCH":"2026-03-02T23:10:32.044224","MEAN_MOTION":15.96468146,"ECCENTRICITY":0.000667,"INCLINATION":96.5896,"RA_OF_ASC_NODE":355.2424,"ARG_OF_PERICENTER":171.5087,"MEAN_ANOMALY":188.6305,"EPHEMERIS_TYPE":0,"CLASSIFICATION_TYPE":"U","NORAD_CAT_ID":65270,"ELEMENT_SET_NO":999,"REV_AT_EPOCH":3076,"BSTAR":0.00024161553,"MEAN_MOTION_DOT":0.00100328,"MEAN_MOTION_DDOT":5.699368e-6},{"OBJECT_NAME":"ISS OBJECT XK","OBJECT_ID":"1998-067XK","EPOCH":"2026-03-02T07:29:41.162208","MEAN_MOTION":16.0323821,"ECCENTRICITY":0.00063469,"INCLINATION":51.617,"RA_OF_ASC_NODE":85.7436,"ARG_OF_PERICENTER":46.9692,"MEAN_ANOMALY":313.185,"EPHEMERIS_TYPE":0,"CLASSIFICATION_TYPE":"U","NORAD_CAT_ID":65731,"ELEMENT_SET_NO":999,"REV_AT_EPOCH":2571,"BSTAR":0.0013041154,"MEAN_MOTION_DOT":0.00825722,"MEAN_MOTION_DDOT":0.00034643321},{"OBJECT_NAME":"BOTAN","OBJECT_ID":"1998-067XP","EPOCH":"2026-03-02T10:36:22.696704","MEAN_MOTION":16.19120033,"ECCENTRICITY":0.00050716,"INCLINATION":51.6071,"RA_OF_ASC_NODE":87.3174,"ARG_OF_PERICENTER":45.1501,"MEAN_ANOMALY":314.9928,"EPHEMERIS_TYPE":0,"CLASSIFICATION_TYPE":"U","NORAD_CAT_ID":65942,"ELEMENT_SET_NO":999,"REV_AT_EPOCH":2245,"BSTAR":0.001506489,"MEAN_MOTION_DOT":0.0280854,"MEAN_MOTION_DDOT":1.1844682e-5},{"OBJECT_NAME":"CZ-4B R/B","OBJECT_ID":"2025-289B","EPOCH":"2026-03-02T22:52:05.759616","MEAN_MOTION":16.2122163,"ECCENTRICITY":0.00334209,"INCLINATION":97.5043,"RA_OF_ASC_NODE":140.0415,"ARG_OF_PERICENTER":52.8089,"MEAN_ANOMALY":307.6243,"EPHEMERIS_TYPE":0,"CLASSIFICATION_TYPE":"U","NORAD_CAT_ID":66989,"ELEMENT_SET_NO":999,"REV_AT_EPOCH":1326,"BSTAR":0.00076039566,"MEAN_MOTION_DOT":0.01773985,"MEAN_MOTION_DDOT":2.494889e-6},{"OBJECT_NAME":"ZK-1A R/B","OBJECT_ID":"2025-292K","EPOCH":"2026-03-02T21:41:14.592768","MEAN_MOTION":16.2233433,"ECCENTRICITY":0.00443428,"INCLINATION":97.6836,"RA_OF_ASC_NODE":148.5655,"ARG_OF_PERICENTER":60.7664,"MEAN_ANOMALY":299.8048,"EPHEMERIS_TYPE":0,"CLASSIFICATION_TYPE":"U","NORAD_CAT_ID":67002,"ELEMENT_SET_NO":999,"REV_AT_EPOCH":1301,"BSTAR":0.00093492297,"MEAN_MOTION_DOT":0.02644533,"MEAN_MOTION_DDOT":2.617671e-6},{"OBJECT_NAME":"STARLINK-36618","OBJECT_ID":"2026-033AC","EPOCH":"2026-03-02T21:07:13.898208","MEAN_MOTION":15.9894189,"ECCENTRICITY":0.00030123,"INCLINATION":42.9869,"RA_OF_ASC_NODE":311.4895,"ARG_OF_PERICENTER":257.9405,"MEAN_ANOMALY":102.1136,"EPHEMERIS_TYPE":0,"CLASSIFICATION_TYPE":"U","NORAD_CAT_ID":67847,"ELEMENT_SET_NO":999,"REV_AT_EPOCH":356,"BSTAR":-7.502403e-6,"MEAN_MOTION_DOT":-6.455e-5,"MEAN_MOTION_DDOT":8.483483e-6}]
